NORAD_CAT_ID,OBJECT_NAME,OBJECT_TYPE,EPOCH,MEAN_MOTION,ECCENTRICITY,INCLINATION,RA_OF_ASC_NODE,ARG_OF_PERICENTER,MEAN_ANOMALY,BSTAR,MEAN_MOTION_DOT,MEAN_MOTION_DDOT,TLE_LINE0,TLE_LINE1,TLE_LINE2,SEMIMAJOR_AXIS,PERIOD,APOGEE,PERIGEE,DECAYED
53722.0,STARLINK-4700,PAYLOAD,2024-04-15 08:19:56,15.08841746,0.0001567,53.2169,126.566,99.5181,260.5988,9.0553e-05,1.154e-05,0.0,0 STARLINK-4700,1 53722U 22107Y   24106.34718052  .00001154  00000-0  90553-4 0  9991,2 53722  53.2169 126.5660 0001567  99.5181 260.5988 15.08841746 89734,6917.875,95.437,540.824,538.656,0.0
53722.0,STARLINK-4700,PAYLOAD,2024-04-15 17:52:15,15.08838585,0.0001559,53.2168,124.7813,93.2971,266.82,7.3097e-05,8.75e-06,0.0,0 STARLINK-4700,1 53722U 22107Y   24106.74462406  .00000875  00000-0  73097-4 0  9997,2 53722  53.2168 124.7813 0001559  93.2971 266.8200 15.08838585 89791,6917.885,95.438,540.828,538.671,0.0
53722.0,STARLINK-4700,PAYLOAD,2024-04-16 04:59:57,15.08824761,0.0001595,53.2165,122.7028,105.9567,254.1601,0.00023125,3.393e-05,0.0,0 STARLINK-4700,1 53722U 22107Y   24107.20830918  .00003393  00000-0  23125-3 0  9990,2 53722  53.2165 122.7028 0001595 105.9567 254.1601 15.08824761 89411,6917.927,95.439,540.895,538.689,0.0
53722.0,STARLINK-4700,PAYLOAD,2024-04-16 11:21:29,15.08846035,0.0001475,53.2169,121.5127,103.8926,256.223,5.0877e-05,5.22e-06,0.0,0 STARLINK-4700,1 53722U 22107Y   24107.47326197  .00000522  00000-0  50877-4 0  9994,2 53722  53.2169 121.5127 0001475 103.8926 256.2230 15.08846035 89458,6917.862,95.437,540.747,538.707,0.0
53722.0,STARLINK-4700,PAYLOAD,2024-04-17 04:50:44,15.08842953,0.0001508,53.2175,118.2418,99.5992,260.517,7.9505e-05,9.78e-06,0.0,0 STARLINK-4700,1 53722U 22107Y   24108.20190452  .00000978  00000-0  79505-4 0  9993,2 53722  53.2175 118.2418 0001508  99.5992 260.5170 15.08842953 89560,6917.871,95.437,540.78,538.693,0.0
53722.0,STARLINK-4700,PAYLOAD,2024-04-17 09:36:53,15.08851484,0.0001707,53.2173,117.3506,101.8069,258.3115,6.568e-05,7.58e-06,0.0,0 STARLINK-4700,1 53722U 22107Y   24108.40061917  .00000758  00000-0  65680-4 0  9993,2 53722  53.2173 117.3506 0001707 101.8069 258.3115 15.08851484 89595,6917.845,95.437,540.891,538.529,0.0
53722.0,STARLINK-4700,PAYLOAD,2024-04-18 04:41:32,15.08833009,0.0001867,53.2164,113.7814,123.5408,236.5762,-7.6351e-06,-4.1e-06,0.0,0 STARLINK-4700,1 53722U 22107Y   24109.19550939 -.00000410  00000-0 -76351-5 0  9992,2 53722  53.2164 113.7814 0001867 123.5408 236.5762 15.08833009 89715,6917.902,95.438,541.058,538.475,0.0
53722.0,STARLINK-4700,PAYLOAD,2024-04-18 09:27:41,15.0883153,0.0001449,53.2158,112.8878,94.6508,265.4649,-4.0243e-05,-9.28e-06,0.0,0 STARLINK-4700,1 53722U 22107Y   24109.39423281 -.00000928  00000-0 -40243-4 0  9997,2 53722  53.2158 112.8878 0001449  94.6508 265.4649 15.08831530 90199,6917.906,95.438,540.774,538.769,0.0
53722.0,STARLINK-4700,PAYLOAD,2024-04-19 09:18:28,15.08849743,0.0001585,53.2169,108.4252,77.5436,282.5734,0.0002529,3.74e-05,0.0,0 STARLINK-4700,1 53722U 22107Y   24110.38782823  .00003740  00000-0  25290-3 0  9995,2 53722  53.2169 108.4252 0001585  77.5436 282.5734 15.08849743 89894,6917.851,95.437,540.812,538.619,0.0
53722.0,STARLINK-4700,PAYLOAD,2024-04-20 05:58:28,15.08855957,0.0001601,53.2153,104.5615,83.6612,276.4562,0.00039146,5.95e-05,0.0,0 STARLINK-4700,1 53722U 22107Y   24111.24894428  .00005950  00000-0  39146-3 0  9996,2 53722  53.2153 104.5615 0001601  83.6612 276.4562 15.08855957 90471,6917.832,95.437,540.804,538.589,0.0
53722.0,STARLINK-4700,PAYLOAD,2024-04-21 04:13:53,15.08828006,0.0001533,53.2178,100.3931,107.4999,252.6161,-0.00023018,-3.948e-05,0.0,0 STARLINK-4700,1 53722U 22107Y   24112.17631599 -.00003948  00000-0 -23018-3 0  9995,2 53722  53.2178 100.3931 0001533 107.4999 252.6161 15.08828006 90162,6917.917,95.438,540.843,538.722,0.0
53722.0,STARLINK-4700,PAYLOAD,2024-04-21 09:00:03,15.08821902,0.000147,53.2175,99.5039,105.8727,254.2428,-0.00028056,-4.748e-05,0.0,0 STARLINK-4700,1 53722U 22107Y   24112.37504034 -.00004748  00000-0 -28056-3 0  9996,2 53722  53.2175  99.5039 0001470 105.8727 254.2428 15.08821902 90643,6917.936,95.439,540.818,538.784,0.0
53722.0,STARLINK-4700,PAYLOAD,2024-04-22 04:04:40,15.0884338,0.0001542,53.2177,95.9355,97.4292,262.6875,0.0002552,3.776e-05,0.0,0 STARLINK-4700,1 53722U 22107Y   24113.16991517  .00003776  00000-0  25520-3 0  9991,2 53722  53.2177  95.9355 0001542  97.4292 262.6875 15.08843380 90316,6917.87,95.437,540.802,538.668,0.0
53722.0,STARLINK-4700,PAYLOAD,2024-04-23 03:55:28,15.08838984,0.0001361,53.2174,91.4755,109.5554,250.5585,0.00032658,4.913e-05,0.0,0 STARLINK-4700,1 53722U 22107Y   24114.16352194  .00004913  00000-0  32658-3 0  9998,2 53722  53.2174  91.4755 0001361 109.5554 250.5585 15.08838984 90467,6917.883,95.438,540.69,538.807,0.0
53722.0,STARLINK-4700,PAYLOAD,2024-04-23 05:30:51,15.0884129,0.0001357,53.2175,91.1788,116.83,243.2831,0.00033454,5.04e-05,0.0,0 STARLINK-4700,1 53722U 22107Y   24114.22976020  .00005040  00000-0  33454-3 0  9992,2 53722  53.2175  91.1788 0001357 116.8300 243.2831 15.08841290 90924,6917.876,95.437,540.68,538.803,0.0
53722.0,STARLINK-4700,PAYLOAD,2024-04-23 21:24:42,15.08841368,0.0001376,53.2175,88.2114,105.691,254.4234,1.5518e-05,-4.1e-07,0.0,0 STARLINK-4700,1 53722U 22107Y   24114.89215810 -.00000041  00000-0  15518-4 0  9997,2 53722  53.2175  88.2114 0001376 105.6910 254.4234 15.08841368 91027,6917.876,95.437,540.693,538.789,0.0
53722.0,STARLINK-4700,PAYLOAD,2024-04-24 03:46:14,15.08845302,0.0001519,53.2174,87.0219,113.6532,246.4619,-2.9346e-05,-7.55e-06,0.0,0 STARLINK-4700,1 53722U 22107Y   24115.15711712 -.00000755  00000-0 -29346-4 0  9996,2 53722  53.2174  87.0219 0001519 113.6532 246.4619 15.08845302 91061,6917.864,95.437,540.78,538.678,0.0
53722.0,STARLINK-4700,PAYLOAD,2024-04-24 21:15:29,15.08842428,0.0001451,53.2175,83.7508,109.7579,250.3569,8.9472e-05,1.136e-05,0.0,0 STARLINK-4700,1 53722U 22107Y   24115.88575847  .00001136  00000-0  89472-4 0  9991,2 53722  53.2175  83.7508 0001451 109.7579 250.3569 15.08842428 90724,6917.873,95.437,540.742,538.734,0.0
53722.0,STARLINK-4700,PAYLOAD,2024-04-25 06:47:48,15.08843678,0.0001555,53.2175,81.9638,103.7685,256.348,7.9365e-05,9.75e-06,0.0,0 STARLINK-4700,1 53722U 22107Y   24116.28319904  .00000975  00000-0  79365-4 0  9996,2 53722  53.2175  81.9638 0001555 103.7685 256.3480 15.08843678 91238,6917.869,95.437,540.81,538.658,0.0
53722.0,STARLINK-4700,PAYLOAD,2024-04-26 05:03:12,15.08843691,0.0001443,53.2185,77.8012,86.8803,273.2354,9.1495e-05,1.169e-05,0.0,0 STARLINK-4700,1 53722U 22107Y   24117.21056213  .00001169  00000-0  91495-4 0  9995,2 53722  53.2185  77.8012 0001443  86.8803 273.2354 15.08843691 90926,6917.869,95.437,540.732,538.736,0.0
53722.0,STARLINK-4700,PAYLOAD,2024-04-26 06:38:35,15.08848867,0.0001398,53.2181,77.5028,102.4499,257.665,0.0001292,1.769e-05,0.0,0 STARLINK-4700,1 53722U 22107Y   24117.27679679  .00001769  00000-0  12920-3 0  9999,2 53722  53.2181  77.5028 0001398 102.4499 257.6650 15.08848867 90937,6917.853,95.437,540.685,538.751,0.0
53722.0,STARLINK-4700,PAYLOAD,2024-04-26 14:35:31,15.08841929,0.0001348,53.219,76.0152,90.6472,269.4675,0.00011927,1.611e-05,0.0,0 STARLINK-4700,1 53722U 22107Y   24117.60800184  .00001611  00000-0  11927-3 0  9995,2 53722  53.2190  76.0152 0001348  90.6472 269.4675 15.08841929 91439,6917.874,95.437,540.672,538.807,0.0
53722.0,STARLINK-4700,PAYLOAD,2024-04-27 03:18:35,15.08850733,0.0001533,53.2181,73.6353,103.3329,256.7835,0.00017538,2.505e-05,0.0,0 STARLINK-4700,1 53722U 22107Y   24118.13791590  .00002505  00000-0  17538-3 0  9991,2 53722  53.2181  73.6353 0001533 103.3329 256.7835 15.08850733 91063,6917.848,95.437,540.773,538.652,0.0
53722.0,STARLINK-4700,PAYLOAD,2024-04-27 14:26:18,15.08842036,0.0001216,53.2176,71.553,105.6388,254.4739,7.1327e-05,8.48e-06,0.0,0 STARLINK-4700,1 53722U 22107Y   24118.60159911  .00000848  00000-0  71327-4 0  9993,2 53722  53.2176  71.5530 0001216 105.6388 254.4739 15.08842036 91581,6917.874,95.437,540.58,538.898,0.0
53722.0,STARLINK-4700,PAYLOAD,2024-04-28 03:09:24,15.08835441,0.0001342,53.2184,69.1742,92.2283,267.8863,-8.6765e-05,-1.668e-05,0.0,0 STARLINK-4700,1 53722U 22107Y   24119.13153079 -.00001668  00000-0 -86765-4 0  9996,2 53722  53.2184  69.1742 0001342  92.2283 267.8863 15.08835441 91211,6917.894,95.438,540.688,538.831,0.0
53722.0,STARLINK-4700,PAYLOAD,2024-04-28 06:20:10,15.08837479,0.0001441,53.2186,68.5785,92.4893,267.6264,-6.2913e-05,-1.289e-05,0.0,0 STARLINK-4700,1 53722U 22107Y   24119.26400924 -.00001289  00000-0 -62913-4 0  9992,2 53722  53.2186  68.5785 0001441  92.4893 267.6264 15.08837479 91689,6917.888,95.438,540.75,538.756,0.0
53722.0,STARLINK-4700,PAYLOAD,2024-04-29 03:00:10,15.08842583,0.0001293,53.2191,64.7139,93.5161,266.5979,0.00016152,2.284e-05,0.0,0 STARLINK-4700,1 53722U 22107Y   24120.12512106  .00002284  00000-0  16152-3 0  9992,2 53722  53.2191  64.7139 0001293  93.5161 266.5979 15.08842583 91369,6917.872,95.437,540.632,538.843,0.0
53722.0,STARLINK-4700,PAYLOAD,2024-04-29 20:29:25,15.08829679,0.000158,53.2195,61.4424,91.7355,268.3818,0.00015396,2.162e-05,0.0,0 STARLINK-4700,1 53722U 22107Y   24120.85377072  .00002162  00000-0  15396-3 0  9997,2 53722  53.2195  61.4424 0001580  91.7355 268.3818 15.08829679 91473,6917.912,95.438,540.87,538.684,0.0
53722.0,STARLINK-4700,PAYLOAD,2024-04-30 12:23:17,15.08837046,0.0001418,53.2187,58.4692,76.1997,283.9153,9.7032e-05,1.257e-05,0.0,0 STARLINK-4700,1 53722U 22107Y   24121.51617011  .00001257  00000-0  97032-4 0  9993,2 53722  53.2187  58.4692 0001418  76.1997 283.9153 15.08837046 92020,6917.889,95.438,540.735,538.773,0.0
53722.0,STARLINK-4700,PAYLOAD,2024-05-01 02:41:44,15.08845975,0.0001311,53.2179,55.7958,81.0731,279.041,8.2172e-05,1.02e-05,0.0,0 STARLINK-4700,1 53722U 22107Y   24122.11232431  .00001020  00000-0  82172-4 0  9996,2 53722  53.2179  55.7958 0001311  81.0731 279.0410 15.08845975 91660,6917.862,95.437,540.634,538.82,0.0
